{
  "type": "FeatureCollection",
  "features": [
    {
      "type": "Feature",
      "properties": {
        "norad_id": 39773,
        "name": "EUTELSAT 3B",
        "group": "eutelsat",
        "lat": -0.04514979353218052,
        "lon": -149.2911217711786,
        "alt_km": 35770.049624346786,
        "timestamp": "2025-12-27T07:26:24.892377+00:00",
        "meta_object_name": "EUTELSAT 3B",
        "meta_object_id": "2014-030A",
        "meta_epoch": "2025-12-26T08:51:38.739168",
        "meta_mean_motion": 1.00270297,
        "meta_eccentricity": 0.0004298,
        "meta_inclination": 0.06,
        "meta_ra_of_asc_node": 352.4178,
        "meta_arg_of_pericenter": 243.3494,
        "meta_mean_anomaly": 355.3551,
        "meta_ephemeris_type": 0,
        "meta_classification_type": "U",
        "meta_norad_cat_id": 39773,
        "meta_element_set_no": 999,
        "meta_rev_at_epoch": 4233,
        "meta_bstar": 0,
        "meta_mean_motion_dot": 4.2e-07,
        "meta_mean_motion_ddot": 0,
        "tle_line1": "1 39773U 14030A   25360.36919837  .00000042  00000+0  00000+0 0  9993",
        "tle_line2": "2 39773   0.0600 352.4178 0004298 243.3494 355.3551  1.00270297 42336"
      },
      "geometry": {
        "type": "Point",
        "coordinates": [
          -149.2911217711786,
          -0.04514979353218052
        ]
      }
    },
    {
      "type": "Feature",
      "properties": {
        "norad_id": 40425,
        "name": "EUTELSAT 115 WEST B",
        "group": "eutelsat",
        "lat": -0.005463571590429157,
        "lon": 92.73954444494503,
        "alt_km": 35785.3079811695,
        "timestamp": "2025-12-27T07:26:24.892389+00:00",
        "meta_object_name": "EUTELSAT 115 WEST B",
        "meta_object_id": "2015-010B",
        "meta_epoch": "2025-12-26T05:44:38.581152",
        "meta_mean_motion": 1.00273604,
        "meta_eccentricity": 7.8e-06,
        "meta_inclination": 0.0077,
        "meta_ra_of_asc_node": 147.8651,
        "meta_arg_of_pericenter": 258.8043,
        "meta_mean_anomaly": 19.571,
        "meta_ephemeris_type": 0,
        "meta_classification_type": "U",
        "meta_norad_cat_id": 40425,
        "meta_element_set_no": 999,
        "meta_rev_at_epoch": 3965,
        "meta_bstar": 0,
        "meta_mean_motion_dot": -3e-08,
        "meta_mean_motion_ddot": 0,
        "tle_line1": "1 40425U 15010B   25360.23933543 -.00000003  00000+0  00000+0 0  9992",
        "tle_line2": "2 40425   0.0077 147.8651 0000078 258.8043  19.5710  1.00273604 39657"
      },
      "geometry": {
        "type": "Point",
        "coordinates": [
          92.73954444494503,
          -0.005463571590429157
        ]
      }
    },
    {
      "type": "Feature",
      "properties": {
        "norad_id": 40875,
        "name": "EUTELSAT 8 WEST B",
        "group": "eutelsat",
        "lat": -0.012139324868179695,
        "lon": -160.41173679757708,
        "alt_km": 35781.92822985724,
        "timestamp": "2025-12-27T07:26:24.892401+00:00",
        "meta_object_name": "EUTELSAT 8 WEST B",
        "meta_object_id": "2015-039B",
        "meta_epoch": "2025-12-26T14:42:28.524960",
        "meta_mean_motion": 1.00271395,
        "meta_eccentricity": 0.0004204,
        "meta_inclination": 0.0651,
        "meta_ra_of_asc_node": 12.1709,
        "meta_arg_of_pericenter": 263.5924,
        "meta_mean_anomaly": 32.208,
        "meta_ephemeris_type": 0,
        "meta_classification_type": "U",
        "meta_norad_cat_id": 40875,
        "meta_element_set_no": 999,
        "meta_rev_at_epoch": 3792,
        "meta_bstar": 0,
        "meta_mean_motion_dot": -4.4e-07,
        "meta_mean_motion_ddot": 0,
        "tle_line1": "1 40875U 15039B   25360.61283015 -.00000044  00000+0  00000+0 0  9991",
        "tle_line2": "2 40875   0.0651  12.1709 0004204 263.5924  32.2080  1.00271395 37923"
      },
      "geometry": {
        "type": "Point",
        "coordinates": [
          -160.41173679757708,
          -0.012139324868179695
        ]
      }
    },
    {
      "type": "Feature",
      "properties": {
        "norad_id": 41310,
        "name": "EUTELSAT 9B",
        "group": "eutelsat",
        "lat": -0.00020159505247231206,
        "lon": -143.4195081183103,
        "alt_km": 35776.26015984831,
        "timestamp": "2025-12-27T07:26:24.892413+00:00",
        "meta_object_name": "EUTELSAT 9B",
        "meta_object_id": "2016-005A",
        "meta_epoch": "2025-12-26T08:43:38.553888",
        "meta_mean_motion": 1.00269907,
        "meta_eccentricity": 0.0004728,
        "meta_inclination": 0.0277,
        "meta_ra_of_asc_node": 48.2901,
        "meta_arg_of_pericenter": 227.4289,
        "meta_mean_anomaly": 319.2953,
        "meta_ephemeris_type": 0,
        "meta_classification_type": "U",
        "meta_norad_cat_id": 41310,
        "meta_element_set_no": 999,
        "meta_rev_at_epoch": 3638,
        "meta_bstar": 0,
        "meta_mean_motion_dot": 8.3e-07,
        "meta_mean_motion_ddot": 0,
        "tle_line1": "1 41310U 16005A   25360.36364067  .00000083  00000+0  00000+0 0  9991",
        "tle_line2": "2 41310   0.0277  48.2901 0004728 227.4289 319.2953  1.00269907 36382"
      },
      "geometry": {
        "type": "Point",
        "coordinates": [
          -143.4195081183103,
          -0.00020159505247231206
        ]
      }
    },
    {
      "type": "Feature",
      "properties": {
        "norad_id": 41382,
        "name": "EUTELSAT 65 WEST A",
        "group": "eutelsat",
        "lat": 0.03171534930625073,
        "lon": 142.43811232119046,
        "alt_km": 35793.582628944045,
        "timestamp": "2025-12-27T07:26:24.892455+00:00",
        "meta_object_name": "EUTELSAT 65 WEST A",
        "meta_object_id": "2016-014A",
        "meta_epoch": "2025-12-26T08:16:36.677280",
        "meta_mean_motion": 1.00271228,
        "meta_eccentricity": 0.0002373,
        "meta_inclination": 0.0477,
        "meta_ra_of_asc_node": 347.1965,
        "meta_arg_of_pericenter": 291.4205,
        "meta_mean_anomaly": 235.4476,
        "meta_ephemeris_type": 0,
        "meta_classification_type": "U",
        "meta_norad_cat_id": 41382,
        "meta_element_set_no": 999,
        "meta_rev_at_epoch": 3580,
        "meta_bstar": 0,
        "meta_mean_motion_dot": -2.54e-06,
        "meta_mean_motion_ddot": 0,
        "tle_line1": "1 41382U 16014A   25360.34486895 -.00000254  00000+0  00000+0 0  9993",
        "tle_line2": "2 41382   0.0477 347.1965 0002373 291.4205 235.4476  1.00271228 35801"
      },
      "geometry": {
        "type": "Point",
        "coordinates": [
          142.43811232119046,
          0.03171534930625073
        ]
      }
    },
    {
      "type": "Feature",
      "properties": {
        "norad_id": 41589,
        "name": "EUTELSAT 117 WEST B",
        "group": "eutelsat",
        "lat": -0.0026279821576234916,
        "lon": 90.63276187273708,
        "alt_km": 35785.95149667245,
        "timestamp": "2025-12-27T07:26:24.892479+00:00",
        "meta_object_name": "EUTELSAT 117 WEST B",
        "meta_object_id": "2016-038B",
        "meta_epoch": "2025-12-26T22:44:56.725728",
        "meta_mean_motion": 1.00272383,
        "meta_eccentricity": 1.85e-06,
        "meta_inclination": 0.0117,
        "meta_ra_of_asc_node": 149.0089,
        "meta_arg_of_pericenter": 171.2935,
        "meta_mean_anomaly": 359.6124,
        "meta_ephemeris_type": 0,
        "meta_classification_type": "U",
        "meta_norad_cat_id": 41589,
        "meta_element_set_no": 999,
        "meta_rev_at_epoch": 3493,
        "meta_bstar": 0,
        "meta_mean_motion_dot": 1.1e-07,
        "meta_mean_motion_ddot": 0,
        "tle_line1": "1 41589U 16038B   25360.94787877  .00000011  00000+0  00000+0 0  9998",
        "tle_line2": "2 41589   0.0117 149.0089 0000018 171.2935 359.6124  1.00272383 34931"
      },
      "geometry": {
        "type": "Point",
        "coordinates": [
          90.63276187273708,
          -0.0026279821576234916
        ]
      }
    },
    {
      "type": "Feature",
      "properties": {
        "norad_id": 42741,
        "name": "EUTELSAT 172B",
        "group": "eutelsat",
        "lat": -0.02153334506164282,
        "lon": 19.64617857534849,
        "alt_km": 35786.374977429055,
        "timestamp": "2025-12-27T07:26:24.892492+00:00",
        "meta_object_name": "EUTELSAT 172B",
        "meta_object_id": "2017-029B",
        "meta_epoch": "2025-12-26T17:16:28.776864",
        "meta_mean_motion": 1.00273653,
        "meta_eccentricity": 2.717e-05,
        "meta_inclination": 0.0384,
        "meta_ra_of_asc_node": 162.2852,
        "meta_arg_of_pericenter": 80.0585,
        "meta_mean_anomaly": 284.2379,
        "meta_ephemeris_type": 0,
        "meta_classification_type": "U",
        "meta_norad_cat_id": 42741,
        "meta_element_set_no": 999,
        "meta_rev_at_epoch": 3200,
        "meta_bstar": 0,
        "meta_mean_motion_dot": 1.7e-07,
        "meta_mean_motion_ddot": 0,
        "tle_line1": "1 42741U 17029B   25360.71977751  .00000017  00000+0  00000+0 0  9993",
        "tle_line2": "2 42741   0.0384 162.2852 0000271  80.0585 284.2379  1.00273653 32004"
      },
      "geometry": {
        "type": "Point",
        "coordinates": [
          19.64617857534849,
          -0.02153334506164282
        ]
      }
    }
  ]
}